     2              NAVIGATION DATA                         RINEX VERSION / TYPE
CCRINEXN V1.6.0 UX  CDDIS               21-DEC-14 15:31     PGM / RUN BY / DATE 
IGS BROADCAST EPHEMERIS FILE                                COMMENT             
    0.2887D-07  0.2235D-07 -0.1192D-06  0.5960D-07          ION ALPHA           
    0.1536D+06 -0.1966D+06 -0.6554D+05  0.3932D+06          ION BETA            
    0.186264514923D-08 0.799360577730D-14    61440     1824 DELTA-UTC: A0,A1,T,W
    16                                                      LEAP SECONDS        
                                                            END OF HEADER       
 3 14 12 20 22  0  0.0 0.903690233827D-04 0.289901436190D-10 0.000000000000D+00
    0.980000000000D+02-0.292500000000D+02 0.500306554062D-08-0.279858587812D+01
   -0.151433050632D-05 0.970380962826D-03 0.686384737492D-05 0.515377530479D+04
    0.597600000000D+06 0.353902578354D-07 0.199233669652D+01-0.279396772385D-07
    0.959014214769D+00 0.249343750000D+03-0.301056506018D+01-0.810533761985D-08
   -0.487163149444D-09 0.100000000000D+01 0.182300000000D+04 0.000000000000D+00
    0.280000000000D+01 0.000000000000D+00 0.558793544769D-08 0.980000000000D+02
    0.590418000000D+06 0.400000000000D+01 0.000000000000D+00 0.000000000000D+00
 4 14 12 20 22  0  0.0-0.456068664789D-05-0.454747350886D-12 0.000000000000D+00
    0.190000000000D+02 0.252812500000D+02 0.535808032841D-08 0.921660639459D+00
    0.123865902424D-05 0.109588836785D-01 0.698119401932D-05 0.515373697090D+04
    0.597600000000D+06-0.102445483208D-06 0.932853959649D+00 0.558793544769D-07
    0.939040631429D+00 0.233656250000D+03 0.104971918650D+01-0.852535511526D-08
    0.535379443560D-09 0.100000000000D+01 0.182300000000D+04 0.000000000000D+00
    0.200000000000D+01 0.000000000000D+00-0.651925802231D-08 0.190000000000D+02
    0.590418000000D+06 0.400000000000D+01 0.000000000000D+00 0.000000000000D+00
 5 14 12 20 22  0  0.0-0.303538516164D-03 0.477484718431D-11 0.000000000000D+00
    0.300000000000D+02-0.369687500000D+02 0.527129099900D-08-0.222236880116D+01
   -0.213272869587D-05 0.404212996364D-02 0.668130815029D-05 0.515373217583D+04
    0.597600000000D+06 0.260770320892D-07 0.198738475979D+01-0.109896063805D-06
    0.946311487889D+00 0.243562500000D+03 0.414842263251D+00-0.831391773662D-08
   -0.426446334630D-09 0.000000000000D+00 0.182300000000D+04 0.000000000000D+00
    0.200000000000D+01 0.000000000000D+00-0.107102096081D-07 0.300000000000D+02
    0.590400000000D+06 0.400000000000D+01 0.000000000000D+00 0.000000000000D+00
 6 14 12 20 22  0  0.0 0.314377248287D-04 0.829913915368D-11 0.000000000000D+00
    0.280000000000D+02 0.263750000000D+02 0.468198073758D-08-0.231056867344D+01
    0.151433050632D-05 0.546541530639D-03 0.710785388946D-05 0.515365580177D+04
    0.597600000000D+06-0.298023223877D-07 0.942980262502D+00-0.521540641785D-07
    0.961329897055D+00 0.240437500000D+03 0.230296067288D+01-0.802747723379D-08
    0.659313177326D-09 0.000000000000D+00 0.182300000000D+04 0.000000000000D+00
    0.200000000000D+01 0.000000000000D+00 0.465661287308D-08 0.280000000000D+02
    0.590400000000D+06 0.400000000000D+01 0.000000000000D+00 0.000000000000D+00
 7 14 12 20 22  0  0.0 0.424077268690D-03 0.352429196937D-11 0.000000000000D+00
    0.630000000000D+02 0.118906250000D+03 0.451090218290D-08 0.546272502922D+00
    0.622123479843D-05 0.794122682419D-02 0.262074172497D-05 0.515374536896D+04
    0.597600000000D+06 0.000000000000D+00-0.217155531598D+01 0.465661287308D-07
    0.971798860672D+00 0.330968750000D+03-0.275131962842D+01-0.844963767561D-08
    0.174292974288D-09 0.000000000000D+00 0.182300000000D+04 0.000000000000D+00
    0.200000000000D+01 0.000000000000D+00-0.111758708954D-07 0.630000000000D+02
    0.590400000000D+06 0.400000000000D+01 0.000000000000D+00 0.000000000000D+00
 8 14 12 20 22  0  0.0 0.168425031006D-04 0.227373675443D-12 0.000000000000D+00
    0.200000000000D+02 0.100593750000D+03 0.408159858639D-08 0.159724330947D+01
    0.521168112755D-05 0.147472333629D-01 0.207498669624D-05 0.515219428825D+04
    0.597600000000D+06-0.173225998878D-06-0.206753761564D+01 0.199303030968D-06
    0.995230352253D+00 0.361093750000D+03-0.267902288257D+01-0.826963017758D-08
    0.692886004340D-10 0.000000000000D+00 0.182300000000D+04 0.000000000000D+00
    0.280000000000D+01 0.630000000000D+02-0.465661287308D-08 0.200000000000D+02
    0.597030000000D+06 0.400000000000D+01 0.000000000000D+00 0.000000000000D+00
11 14 12 20 22  0  0.0-0.545050948858D-03-0.272848410532D-11 0.000000000000D+00
    0.440000000000D+02 0.164062500000D+02 0.624383150922D-08 0.611533274050D+00
    0.851228833199D-06 0.156103093177D-01 0.929646193981D-05 0.515371722221D+04
    0.597600000000D+06-0.171363353729D-06 0.612315054545D+00-0.149011611938D-07
    0.892073163731D+00 0.166093750000D+03 0.137084517672D+01-0.903180478235D-08
    0.635740766869D-09 0.100000000000D+01 0.182300000000D+04 0.000000000000D+00
    0.200000000000D+01 0.000000000000D+00-0.121071934700D-07 0.440000000000D+02
    0.590418000000D+06 0.400000000000D+01 0.000000000000D+00 0.000000000000D+00
12 14 12 20 22  0  0.0 0.255099963397D-03 0.284217094304D-11 0.000000000000D+00
    0.880000000000D+02-0.106125000000D+03 0.401945314064D-08 0.100785925590D+00
   -0.559911131859D-05 0.506164552644D-02 0.302493572235D-05 0.515376773453D+04
    0.597600000000D+06 0.204890966415D-07-0.110488527868D+01 0.540167093277D-07
    0.988777958959D+00 0.334593750000D+03 0.500638485054D+00-0.813533886952D-08
   -0.375729936374D-09 0.100000000000D+01 0.182300000000D+04 0.000000000000D+00
    0.200000000000D+01 0.000000000000D+00-0.121071934700D-07 0.880000000000D+02
    0.591990000000D+06 0.000000000000D+00 0.000000000000D+00 0.000000000000D+00
13 14 12 20 22  0  0.0-0.713774934411D-04-0.341060513165D-11 0.000000000000D+00
    0.230000000000D+02 0.901875000000D+02 0.391873465960D-08 0.144677909680D+01
    0.469200313091D-05 0.585044466425D-02 0.120773911476D-04 0.515589282036D+04
    0.597600000000D+06 0.128522515297D-06-0.313383077453D+01-0.372529029846D-07
    0.976012974675D+00 0.152375000000D+03 0.220317215606D+01-0.755210028958D-08
   -0.151077721565D-09 0.000000000000D+00 0.182300000000D+04 0.000000000000D+00
    0.200000000000D+01 0.000000000000D+00-0.111758708954D-07 0.230000000000D+02
    0.590880000000D+06 0.400000000000D+01 0.000000000000D+00 0.000000000000D+00
14 14 12 20 22  0  0.0 0.104503240436D-03-0.363797880709D-11 0.000000000000D+00
    0.370000000000D+02 0.106875000000D+03 0.399302346831D-08 0.313373824057D+01
    0.555440783501D-05 0.776886229869D-02 0.117998570204D-04 0.515377221870D+04
    0.597600000000D+06 0.949949026108D-07 0.311586937941D+01-0.115483999252D-06
    0.968509441094D+00 0.152781250000D+03-0.196413932944D+01-0.753995692661D-08
   -0.206080012631D-09 0.100000000000D+01 0.182300000000D+04 0.000000000000D+00
    0.200000000000D+01 0.000000000000D+00-0.931322574616D-08 0.370000000000D+02
    0.590418000000D+06 0.400000000000D+01 0.000000000000D+00 0.000000000000D+00
15 14 12 20 22  0  0.0-0.221513211727D-03-0.227373675443D-11 0.000000000000D+00
    0.270000000000D+02 0.695937500000D+02 0.483055835500D-08 0.245605628458D+01
    0.363960862160D-05 0.693719717674D-02 0.118855386972D-04 0.515357478523D+04
    0.597600000000D+06-0.147148966789D-06 0.299708664439D+01-0.223517417908D-07
    0.935066364307D+00 0.138156250000D+03 0.338879533933D+00-0.796961768085D-08
   -0.291440711104D-09 0.000000000000D+00 0.182300000000D+04 0.000000000000D+00
    0.200000000000D+01 0.000000000000D+00-0.102445483208D-07 0.270000000000D+02
    0.595110000000D+06 0.400000000000D+01 0.000000000000D+00 0.000000000000D+00
16 14 12 20 22  0  0.0-0.171611085534D-03 0.306954461848D-11 0.000000000000D+00
    0.700000000000D+02-0.127875000000D+03 0.394873590927D-08-0.204096476203D+01
   -0.661984086037D-05 0.782562128734D-02 0.358372926712D-05 0.515371676254D+04
    0.597600000000D+06 0.186264514923D-08-0.108624559575D+01-0.391155481338D-07
    0.989356510876D+00 0.326500000000D+03 0.230165086820D+00-0.802890586473D-08
   -0.311798701953D-09 0.100000000000D+01 0.182300000000D+04 0.000000000000D+00
    0.200000000000D+01 0.000000000000D+00-0.102445483208D-07 0.700000000000D+02
    0.590442000000D+06 0.400000000000D+01 0.000000000000D+00 0.000000000000D+00
17 14 12 20 22  0  0.0-0.145117752254D-03-0.238742359215D-11 0.000000000000D+00
    0.440000000000D+02-0.963750000000D+02 0.377587156592D-08-0.295752644295D+01
   -0.491738319397D-05 0.989395380020D-02 0.118594616652D-04 0.515369478798D+04
    0.597600000000D+06 0.838190317154D-07-0.574748241371D-01-0.949949026108D-07
    0.971228196810D+00 0.154843750000D+03-0.206885001554D+01-0.738209320810D-08
    0.327156484524D-09 0.000000000000D+00 0.182300000000D+04 0.000000000000D+00
    0.200000000000D+01 0.000000000000D+00-0.107102096081D-07 0.440000000000D+02
    0.590400000000D+06 0.400000000000D+01 0.000000000000D+00 0.000000000000D+00
18 14 12 20 22  0  0.0 0.366527121514D-03 0.261479726760D-11 0.000000000000D+00
    0.710000000000D+02-0.279375000000D+02 0.568845123254D-08-0.147785717487D+01
   -0.122562050819D-05 0.155241949251D-01 0.629387795925D-05 0.515374073791D+04
    0.597600000000D+06 0.309199094772D-06 0.197764278746D+01 0.271946191788D-06
    0.924871411098D+00 0.234625000000D+03-0.199920359888D+01-0.842535094969D-08
   -0.451447376024D-09 0.100000000000D+01 0.182300000000D+04 0.000000000000D+00
    0.200000000000D+01 0.000000000000D+00-0.111758708954D-07 0.710000000000D+02
    0.590418000000D+06 0.400000000000D+01 0.000000000000D+00 0.000000000000D+00
